ONEWEB-0414             
1 50491U 21132Y   24245.57038763  .00000090  00000+0  19628-3 0  9991
2 50491  87.9077 105.5672 0001636  71.0548 289.0762 13.18686608136771
ONEWEB-0417             
1 50492U 21132Z   24245.35068281  .00000064  00000+0  13068-3 0  9999
2 50492  87.9083 105.6193 0001983  77.2572 282.8782 13.18684218136721
ONEWEB-0418             
1 50493U 21132AA  24245.51177991  .00000011  00000+0 -58243-5 0  9996
2 50493  87.9078 105.5873 0002178  73.7093 286.4278 13.18684325136792
ONEWEB-0419             
1 50494U 21132AB  24244.99829206 -.00015188  00000+0 -38687-1 0  9999
2 50494  87.9136 105.6924 0002916 269.0536  91.0261 13.18568108136655
ONEWEB-0420             
1 50495U 21132AC  24245.57198705  .00000027  00000+0  36214-4 0  9999
2 50495  87.9076 105.5985 0001489  85.9581 274.1722 13.18684277136735
ONEWEB-0421             
1 50496U 21132AD  24245.56566237  .00000098  00000+0  21605-3 0  9993
2 50496  87.9085 105.5714 0001557  69.3363 290.7936 13.18684992136775
ONEWEB-0424             
1 50497U 21132AE  24244.91753874  .00000085  00000+0  18317-3 0  9999
2 50497  87.9080 105.7031 0002168  89.7616 270.3765 13.18684171136695
ONEWEB-0426             
1 50498U 21132AF  24245.10724329  .00000105  00000+0  23318-3 0  9995
2 50498  87.9077 105.6797 0002088  63.8694 296.2653 13.18684942136677
